start=new Date('2023-07-04T00:00:00.000Z').valueOf();
sats=[{"TLE_LINE2":"2 50168  53.2162 328.5197 0001109  92.4484 267.6635 15.08841726 85569","EPHEMERIS_TYPE":"0","CLASSIFICATION_TYPE":"U","OBJECT_ID":"2021-125N","RA_OF_ASC_NODE":"328.5197","APOAPSIS":"540.507","BSTAR":"0.00004744700000","OBJECT_NAME":"STARLINK-3296","DECAY_DATE":null,"MEAN_ELEMENT_THEORY":"SGP4","NORAD_CAT_ID":"50168","INCLINATION":"53.2162","FILE":"3948870","TLE_LINE1":"1 50168U 21125N   23184.68822369  .00000467  00000-0  47447-4 0  9990","REV_AT_EPOCH":"8556","RCS_SIZE":"LARGE","REF_FRAME":"TEME","GP_ID":"234700322","ECCENTRICITY":"0.00011090","TIME_SYSTEM":"UTC","PERIOD":"95.437","ARG_OF_PERICENTER":"92.4484","SITE":"AFWTR","ELEMENT_SET_NO":"999","SEMIMAJOR_AXIS":"6917.875","MEAN_MOTION":"15.08841726","MEAN_MOTION_DDOT":"0.0000000000000","MEAN_ANOMALY":"267.6635","EPOCH":"2023-07-03T16:31:02.526816","PERIAPSIS":"538.973","LAUNCH_DATE":"2021-12-18","MEAN_MOTION_DOT":"0.00000467","CENTER_NAME":"EARTH","OBJECT_TYPE":"PAYLOAD","COUNTRY_CODE":"US"},{"GP_ID":"234694388","REF_FRAME":"TEME","SITE":"AFWTR","ARG_OF_PERICENTER":"82.1919","PERIOD":"95.437","TIME_SYSTEM":"UTC","ECCENTRICITY":"0.00012010","FILE":"3948534","REV_AT_EPOCH":"8553","TLE_LINE1":"1 50169U 21125P   23184.46006570 -.00002116  00000-0 -11483-3 0  9990","RCS_SIZE":"LARGE","CENTER_NAME":"EARTH","MEAN_MOTION_DOT":"-0.00002116","LAUNCH_DATE":"2021-12-18","PERIAPSIS":"538.877","EPOCH":"2023-07-03T11:02:29.676480","COUNTRY_CODE":"US","OBJECT_TYPE":"PAYLOAD","MEAN_MOTION":"15.08852378","ELEMENT_SET_NO":"999","SEMIMAJOR_AXIS":"6917.843","MEAN_ANOMALY":"277.9209","MEAN_MOTION_DDOT":"0.0000000000000","APOAPSIS":"540.538","RA_OF_ASC_NODE":"329.5414","BSTAR":"-0.00011483000000","OBJECT_ID":"2021-125P","CLASSIFICATION_TYPE":"U","EPHEMERIS_TYPE":"0","TLE_LINE2":"2 50169  53.2184 329.5414 0001201  82.1919 277.9209 15.08852378 85532","INCLINATION":"53.2184","NORAD_CAT_ID":"50169","MEAN_ELEMENT_THEORY":"SGP4","DECAY_DATE":null,"OBJECT_NAME":"STARLINK-3301"},{"MEAN_MOTION_DOT":"0.00001379","CENTER_NAME":"EARTH","PERIAPSIS":"539.173","LAUNCH_DATE":"2021-12-18","EPOCH":"2023-07-03T16:20:26.964096","COUNTRY_CODE":"US","OBJECT_TYPE":"PAYLOAD","MEAN_MOTION":"15.08837695","ELEMENT_SET_NO":"999","SEMIMAJOR_AXIS":"6917.887","MEAN_ANOMALY":"286.6670","MEAN_MOTION_DDOT":"0.0000000000000","GP_ID":"234698219","REF_FRAME":"TEME","SITE":"AFWTR","PERIOD":"95.438","TIME_SYSTEM":"UTC","ARG_OF_PERICENTER":"73.4414","ECCENTRICITY":"0.00008380","FILE":"3948801","REV_AT_EPOCH":"8816","TLE_LINE1":"1 50170U 21125Q   23184.68086764  .00001379  00000-0  10468-3 0  9999","RCS_SIZE":"LARGE","INCLINATION":"53.2184","NORAD_CAT_ID":"50170","MEAN_ELEMENT_THEORY":"SGP4","OBJECT_NAME":"STARLINK-3245","DECAY_DATE":null,"APOAPSIS":"540.332","RA_OF_ASC_NODE":"328.5504","BSTAR":"0.00010468000000","OBJECT_ID":"2021-125Q","CLASSIFICATION_TYPE":"U","EPHEMERIS_TYPE":"0","TLE_LINE2":"2 50170  53.2184 328.5504 0000838  73.4414 286.6670 15.08837695 88167"},{"SITE":"AFWTR","PERIOD":"95.438","TIME_SYSTEM":"UTC","ARG_OF_PERICENTER":"90.6987","ECCENTRICITY":"0.00010100","GP_ID":"234694390","REF_FRAME":"TEME","REV_AT_EPOCH":"8812","TLE_LINE1":"1 50171U 21125R   23184.43062747  .00000954  00000-0  78015-4 0  9999","RCS_SIZE":"LARGE","FILE":"3948534","COUNTRY_CODE":"US","OBJECT_TYPE":"PAYLOAD","CENTER_NAME":"EARTH","MEAN_MOTION_DOT":"0.00000954","LAUNCH_DATE":"2021-12-18","PERIAPSIS":"539.061","EPOCH":"2023-07-03T10:20:06.213408","MEAN_ANOMALY":"269.4121","MEAN_MOTION_DDOT":"0.0000000000000","MEAN_MOTION":"15.08835437","SEMIMAJOR_AXIS":"6917.894","ELEMENT_SET_NO":"999","BSTAR":"0.00007801500000","APOAPSIS":"540.458","RA_OF_ASC_NODE":"329.6752","OBJECT_ID":"2021-125R","CLASSIFICATION_TYPE":"U","EPHEMERIS_TYPE":"0","TLE_LINE2":"2 50171  53.2182 329.6752 0001010  90.6987 269.4121 15.08835437 88120","INCLINATION":"53.2182","NORAD_CAT_ID":"50171","MEAN_ELEMENT_THEORY":"SGP4","OBJECT_NAME":"STARLINK-3286","DECAY_DATE":null},{"EPOCH":"2023-07-03T09:48:18.524736","LAUNCH_DATE":"2021-12-18","PERIAPSIS":"539.122","CENTER_NAME":"EARTH","MEAN_MOTION_DOT":"0.00001153","OBJECT_TYPE":"PAYLOAD","COUNTRY_CODE":"US","SEMIMAJOR_AXIS":"6917.883","ELEMENT_SET_NO":"999","MEAN_MOTION":"15.08839026","MEAN_MOTION_DDOT":"0.0000000000000","MEAN_ANOMALY":"269.9427","REF_FRAME":"TEME","GP_ID":"234694383","ECCENTRICITY":"0.00009060","PERIOD":"95.438","ARG_OF_PERICENTER":"90.1669","TIME_SYSTEM":"UTC","SITE":"AFWTR","FILE":"3948534","RCS_SIZE":"LARGE","TLE_LINE1":"1 50172U 21125S   23184.40854774  .00001153  00000-0  90525-4 0  9998","REV_AT_EPOCH":"8812","NORAD_CAT_ID":"50172","MEAN_ELEMENT_THEORY":"SGP4","INCLINATION":"53.2176","DECAY_DATE":null,"OBJECT_NAME":"STARLINK-3287","RA_OF_ASC_NODE":"329.7713","APOAPSIS":"540.375","BSTAR":"0.00009052500000","TLE_LINE2":"2 50172  53.2176 329.7713 0000906  90.1669 269.9427 15.08839026 88129","EPHEMERIS_TYPE":"0","OBJECT_ID":"2021-125S","CLASSIFICATION_TYPE":"U"},{"REF_FRAME":"TEME","GP_ID":"234700321","ECCENTRICITY":"0.00010100","SITE":"AFWTR","TIME_SYSTEM":"UTC","PERIOD":"95.437","ARG_OF_PERICENTER":"80.7615","FILE":"3948870","RCS_SIZE":"LARGE","TLE_LINE1":"1 50173U 21125T   23184.64131396  .00002017  00000-0  14477-3 0  9994","REV_AT_EPOCH":"8570","EPOCH":"2023-07-03T15:23:29.526144","MEAN_MOTION_DOT":"0.00002017","CENTER_NAME":"EARTH","PERIAPSIS":"539.027","LAUNCH_DATE":"2021-12-18","OBJECT_TYPE":"PAYLOAD","COUNTRY_CODE":"US","SEMIMAJOR_AXIS":"6917.860","ELEMENT_SET_NO":"999","MEAN_MOTION":"15.08846584","MEAN_MOTION_DDOT":"0.0000000000000","MEAN_ANOMALY":"279.3491","RA_OF_ASC_NODE":"318.7942","APOAPSIS":"540.424","BSTAR":"0.00014477000000","EPHEMERIS_TYPE":"0","TLE_LINE2":"2 50173  53.2171 318.7942 0001010  80.7615 279.3491 15.08846584 85704","OBJECT_ID":"2021-125T","CLASSIFICATION_TYPE":"U","MEAN_ELEMENT_THEORY":"SGP4","NORAD_CAT_ID":"50173","INCLINATION":"53.2171","DECAY_DATE":null,"OBJECT_NAME":"STARLINK-3289"},{"INCLINATION":"53.2176","MEAN_ELEMENT_THEORY":"SGP4","NORAD_CAT_ID":"50174","DECAY_DATE":null,"OBJECT_NAME":"STARLINK-3292","APOAPSIS":"540.450","RA_OF_ASC_NODE":"329.8217","BSTAR":"0.00014509000000","OBJECT_ID":"2021-125U","CLASSIFICATION_TYPE":"U","EPHEMERIS_TYPE":"0","TLE_LINE2":"2 50174  53.2176 329.8217 0001019  89.5168 270.5941 15.08840221 88121","MEAN_MOTION_DOT":"0.00002022","CENTER_NAME":"EARTH","PERIAPSIS":"539.040","LAUNCH_DATE":"2021-12-18","EPOCH":"2023-07-03T09:32:24.710208","COUNTRY_CODE":"US","OBJECT_TYPE":"PAYLOAD","MEAN_MOTION":"15.08840221","ELEMENT_SET_NO":"999","SEMIMAJOR_AXIS":"6917.880","MEAN_ANOMALY":"270.5941","MEAN_MOTION_DDOT":"0.0000000000000","GP_ID":"234694389","REF_FRAME":"TEME","SITE":"AFWTR","ARG_OF_PERICENTER":"89.5168","PERIOD":"95.438","TIME_SYSTEM":"UTC","ECCENTRICITY":"0.00010190","FILE":"3948534","RCS_SIZE":"LARGE","TLE_LINE1":"1 50174U 21125U   23184.39750822  .00002022  00000-0  14509-3 0  9990","REV_AT_EPOCH":"8812"},{"ELEMENT_SET_NO":"999","SEMIMAJOR_AXIS":"6917.868","MEAN_MOTION":"15.08844054","MEAN_MOTION_DDOT":"0.0000000000000","MEAN_ANOMALY":"271.6031","EPOCH":"2023-07-03T16:25:44.525568","CENTER_NAME":"EARTH","MEAN_MOTION_DOT":"0.00001404","PERIAPSIS":"539.066","LAUNCH_DATE":"2021-12-18","OBJECT_TYPE":"PAYLOAD","COUNTRY_CODE":"US","FILE":"3948871","REV_AT_EPOCH":"8816","TLE_LINE1":"1 50175U 21125V   23184.68454312  .00001404  00000-0  10624-3 0  9995","RCS_SIZE":"LARGE","REF_FRAME":"TEME","GP_ID":"234699886","ECCENTRICITY":"0.00009640","SITE":"AFWTR","TIME_SYSTEM":"UTC","PERIOD":"95.437","ARG_OF_PERICENTER":"88.5072","DECAY_DATE":null,"OBJECT_NAME":"STARLINK-3291","MEAN_ELEMENT_THEORY":"SGP4","NORAD_CAT_ID":"50175","INCLINATION":"53.2193","EPHEMERIS_TYPE":"0","TLE_LINE2":"2 50175  53.2193 328.5337 0000964  88.5072 271.6031 15.08844054 88165","CLASSIFICATION_TYPE":"U","OBJECT_ID":"2021-125V","RA_OF_ASC_NODE":"328.5337","APOAPSIS":"540.400","BSTAR":"0.00010624000000"},{"OBJECT_ID":"2021-125W","CLASSIFICATION_TYPE":"U","TLE_LINE2":"2 50176  53.2179 332.4827 0000880  88.3130 271.7963 15.08844986 85434","EPHEMERIS_TYPE":"0","BSTAR":"0.00010152000000","APOAPSIS":"540.339","RA_OF_ASC_NODE":"332.4827","DECAY_DATE":null,"OBJECT_NAME":"STARLINK-3293","INCLINATION":"53.2179","MEAN_ELEMENT_THEORY":"SGP4","NORAD_CAT_ID":"50176","REV_AT_EPOCH":"8543","TLE_LINE1":"1 50176U 21125W   23183.80502615  .00001329  00000-0  10152-3 0  9991","RCS_SIZE":"LARGE","FILE":"3948214","PERIOD":"95.437","TIME_SYSTEM":"UTC","ARG_OF_PERICENTER":"88.3130","SITE":"AFWTR","ECCENTRICITY":"0.00008800","GP_ID":"234686331","REF_FRAME":"TEME","MEAN_ANOMALY":"271.7963","MEAN_MOTION_DDOT":"0.0000000000000","MEAN_MOTION":"15.08844986","SEMIMAJOR_AXIS":"6917.865","ELEMENT_SET_NO":"999","COUNTRY_CODE":"US","OBJECT_TYPE":"PAYLOAD","LAUNCH_DATE":"2021-12-18","PERIAPSIS":"539.121","CENTER_NAME":"EARTH","MEAN_MOTION_DOT":"0.00001329","EPOCH":"2023-07-02T19:19:14.259360"},{"ECCENTRICITY":"0.00008240","PERIOD":"95.437","TIME_SYSTEM":"UTC","ARG_OF_PERICENTER":"85.4053","SITE":"AFWTR","REF_FRAME":"TEME","GP_ID":"234694196","TLE_LINE1":"1 50177U 21125X   23184.14726318  .00000245  00000-0  33466-4 0  9998","REV_AT_EPOCH":"8808","RCS_SIZE":"LARGE","FILE":"3948534","OBJECT_TYPE":"PAYLOAD","COUNTRY_CODE":"US","EPOCH":"2023-07-03T03:32:03.538752","PERIAPSIS":"539.159","LAUNCH_DATE":"2021-12-18","CENTER_NAME":"EARTH","MEAN_MOTION_DOT":"0.00000245","MEAN_MOTION_DDOT":"0.0000000000000","MEAN_ANOMALY":"274.7033","SEMIMAJOR_AXIS":"6917.864","ELEMENT_SET_NO":"999","MEAN_MOTION":"15.08845511","BSTAR":"0.00003346600000","RA_OF_ASC_NODE":"330.9439","APOAPSIS":"540.299","TLE_LINE2":"2 50177  53.2180 330.9439 0000824  85.4053 274.7033 15.08845511 88089","EPHEMERIS_TYPE":"0","CLASSIFICATION_TYPE":"U","OBJECT_ID":"2021-125X","MEAN_ELEMENT_THEORY":"SGP4","NORAD_CAT_ID":"50177","INCLINATION":"53.2180","DECAY_DATE":null,"OBJECT_NAME":"STARLINK-3282"}];
